1 38028U 97051YQ  26112.77833430  .00000543  00000+0  14398-3 0  9999
2 38028  86.3207 303.2999 0029499  50.6265 309.7544 14.46614479673892
